LANDSAT 9               
1 49260U 21088A   24247.79762829  .00001859  00000+0  42236-3 0  9991
2 49260  98.2261 316.4227 0001163  94.4403 265.6928 14.57133225156138
